[{"OBJECT_NAME":"STARLINK-33984","OBJECT_ID":"2025-092AC","EPOCH":"2026-03-12T07:00:28.399104","MEAN_MOTION":15.27575663,"ECCENTRICITY":8.818e-5,"INCLINATION":42.998,"RA_OF_ASC_NODE":157.7551,"ARG_OF_PERICENTER":264.8151,"MEAN_ANOMALY":95.26,"EPHEMERIS_TYPE":0,"CLASSIFICATION_TYPE":"U","NORAD_CAT_ID":63830,"ELEMENT_SET_NO":999,"REV_AT_EPOCH":4901,"BSTAR":0.00053349756,"MEAN_MOTION_DOT":0.00014446,"MEAN_MOTION_DDOT":0},{"OBJECT_NAME":"STARLINK-33940","OBJECT_ID":"2025-092AD","EPOCH":"2026-03-12T07:15:16.518528","MEAN_MOTION":15.27609945,"ECCENTRICITY":0.00014648,"INCLINATION":42.999,"RA_OF_ASC_NODE":157.837,"ARG_OF_PERICENTER":228.1315,"MEAN_ANOMALY":131.9412,"EPHEMERIS_TYPE":0,"CLASSIFICATION_TYPE":"U","NORAD_CAT_ID":63831,"ELEMENT_SET_NO":999,"REV_AT_EPOCH":4906,"BSTAR":0.00097331115,"MEAN_MOTION_DOT":0.00026643,"MEAN_MOTION_DDOT":0},{"OBJECT_NAME":"STARLINK-33978","OBJECT_ID":"2025-092AE","EPOCH":"2026-03-12T06:53:04.598592","MEAN_MOTION":15.27600339,"ECCENTRICITY":0.00017274,"INCLINATION":43.0058,"RA_OF_ASC_NODE":157.7356,"ARG_OF_PERICENTER":273.9483,"MEAN_ANOMALY":86.1172,"EPHEMERIS_TYPE":0,"CLASSIFICATION_TYPE":"U","NORAD_CAT_ID":63832,"ELEMENT_SET_NO":999,"REV_AT_EPOCH":4906,"BSTAR":0.00097245651,"MEAN_MOTION_DOT":0.00026611,"MEAN_MOTION_DDOT":0},{"OBJECT_NAME":"STARLINK-34018","OBJECT_ID":"2025-093A","EPOCH":"2026-03-12T06:12:51.387840","MEAN_MOTION":15.27599537,"ECCENTRICITY":1.296e-5,"INCLINATION":42.9978,"RA_OF_ASC_NODE":63.5183,"ARG_OF_PERICENTER":139.8994,"MEAN_ANOMALY":220.1868,"EPHEMERIS_TYPE":0,"CLASSIFICATION_TYPE":"U","NORAD_CAT_ID":63836,"ELEMENT_SET_NO":999,"REV_AT_EPOCH":4836,"BSTAR":0.00085410368,"MEAN_MOTION_DOT":0.0002333,"MEAN_MOTION_DDOT":0},{"OBJECT_NAME":"STARLINK-34053","OBJECT_ID":"2025-093B","EPOCH":"2026-03-12T06:09:09.331200","MEAN_MOTION":15.27595199,"ECCENTRICITY":3.806e-5,"INCLINATION":42.9966,"RA_OF_ASC_NODE":63.4989,"ARG_OF_PERICENTER":262.9855,"MEAN_ANOMALY":97.0953,"EPHEMERIS_TYPE":0,"CLASSIFICATION_TYPE":"U","NORAD_CAT_ID":63837,"ELEMENT_SET_NO":999,"REV_AT_EPOCH":4830,"BSTAR":0.00089042332,"MEAN_MOTION_DOT":0.00024333,"MEAN_MOTION_DDOT":0},{"OBJECT_NAME":"STARLINK-34042","OBJECT_ID":"2025-093C","EPOCH":"2026-03-12T06:52:11.593056","MEAN_MOTION":15.27590989,"ECCENTRICITY":0.00017273,"INCLINATION":43.0011,"RA_OF_ASC_NODE":59.4009,"ARG_OF_PERICENTER":258.7137,"MEAN_ANOMALY":101.352,"EPHEMERIS_TYPE":0,"CLASSIFICATION_TYPE":"U","NORAD_CAT_ID":63838,"ELEMENT_SET_NO":999,"REV_AT_EPOCH":4841,"BSTAR":0.0011380927,"MEAN_MOTION_DOT":0.00031199,"MEAN_MOTION_DDOT":0},{"OBJECT_NAME":"STARLINK-34040","OBJECT_ID":"2025-093D","EPOCH":"2026-03-11T23:34:01.461504","MEAN_MOTION":15.27590381,"ECCENTRICITY":0.00013111,"INCLINATION":43,"RA_OF_ASC_NODE":64.8757,"ARG_OF_PERICENTER":236.5101,"MEAN_ANOMALY":123.5625,"EPHEMERIS_TYPE":0,"CLASSIFICATION_TYPE":"U","NORAD_CAT_ID":63839,"ELEMENT_SET_NO":999,"REV_AT_EPOCH":4832,"BSTAR":0.0007727552,"MEAN_MOTION_DOT":0.0002107,"MEAN_MOTION_DDOT":0},{"OBJECT_NAME":"STARLINK-33990","OBJECT_ID":"2025-093E","EPOCH":"2026-03-11T06:21:59.945760","MEAN_MOTION":15.275987,"ECCENTRICITY":0.0002598,"INCLINATION":43.0039,"RA_OF_ASC_NODE":68.9462,"ARG_OF_PERICENTER":275.0384,"MEAN_ANOMALY":85.0171,"EPHEMERIS_TYPE":0,"CLASSIFICATION_TYPE":"U","NORAD_CAT_ID":63840,"ELEMENT_SET_NO":999,"REV_AT_EPOCH":4799,"BSTAR":0.00099188,"MEAN_MOTION_DOT":0.00027149,"MEAN_MOTION_DDOT":0},{"OBJECT_NAME":"STARLINK-34056","OBJECT_ID":"2025-093F","EPOCH":"2026-03-12T00:05:28.860864","MEAN_MOTION":15.2758818,"ECCENTRICITY":4.836e-5,"INCLINATION":42.9977,"RA_OF_ASC_NODE":65.0493,"ARG_OF_PERICENTER":302.8057,"MEAN_ANOMALY":57.2748,"EPHEMERIS_TYPE":0,"CLASSIFICATION_TYPE":"U","NORAD_CAT_ID":63841,"ELEMENT_SET_NO":999,"REV_AT_EPOCH":4810,"BSTAR":0.00011451616,"MEAN_MOTION_DOT":2.892e-5,"MEAN_MOTION_DDOT":0},{"OBJECT_NAME":"STARLINK-34026","OBJECT_ID":"2025-093G","EPOCH":"2026-03-11T16:16:32.776896","MEAN_MOTION":15.27586861,"ECCENTRICITY":7.511e-5,"INCLINATION":43.0023,"RA_OF_ASC_NODE":66.9049,"ARG_OF_PERICENTER":288.038,"MEAN_ANOMALY":72.039,"EPHEMERIS_TYPE":0,"CLASSIFICATION_TYPE":"U","NORAD_CAT_ID":63842,"ELEMENT_SET_NO":999,"REV_AT_EPOCH":4805,"BSTAR":0.00099118824,"MEAN_MOTION_DOT":0.00027119,"MEAN_MOTION_DDOT":0},{"OBJECT_NAME":"STARLINK-33777","OBJECT_ID":"2025-093H","EPOCH":"2026-03-11T09:06:14.613984","MEAN_MOTION":15.27594357,"ECCENTRICITY":0.00038414,"INCLINATION":43.0035,"RA_OF_ASC_NODE":68.093,"ARG_OF_PERICENTER":238.8425,"MEAN_ANOMALY":121.205,"EPHEMERIS_TYPE":0,"CLASSIFICATION_TYPE":"U","NORAD_CAT_ID":63843,"ELEMENT_SET_NO":999,"REV_AT_EPOCH":4823,"BSTAR":0.00064515325,"MEAN_MOTION_DOT":0.00017543,"MEAN_MOTION_DDOT":0},{"OBJECT_NAME":"STARLINK-34041","OBJECT_ID":"2025-093J","EPOCH":"2026-03-12T06:31:21.442944","MEAN_MOTION":15.27589063,"ECCENTRICITY":0.00010569,"INCLINATION":43.002,"RA_OF_ASC_NODE":63.6176,"ARG_OF_PERICENTER":262.3152,"MEAN_ANOMALY":97.7579,"EPHEMERIS_TYPE":0,"CLASSIFICATION_TYPE":"U","NORAD_CAT_ID":63844,"ELEMENT_SET_NO":999,"REV_AT_EPOCH":4836,"BSTAR":0.0010705009,"MEAN_MOTION_DOT":0.00029321,"MEAN_MOTION_DDOT":0},{"OBJECT_NAME":"STARLINK-34011","OBJECT_ID":"2025-093K","EPOCH":"2026-03-12T06:42:27.518688","MEAN_MOTION":15.27605329,"ECCENTRICITY":0.00010233,"INCLINATION":42.993,"RA_OF_ASC_NODE":63.673,"ARG_OF_PERICENTER":130.0426,"MEAN_ANOMALY":230.0516,"EPHEMERIS_TYPE":0,"CLASSIFICATION_TYPE":"U","NORAD_CAT_ID":63845,"ELEMENT_SET_NO":999,"REV_AT_EPOCH":4814,"BSTAR":0.0010360421,"MEAN_MOTION_DOT":0.00028379,"MEAN_MOTION_DDOT":0},{"OBJECT_NAME":"STARLINK-34044","OBJECT_ID":"2025-093L","EPOCH":"2026-03-12T07:06:18.030528","MEAN_MOTION":15.27599371,"ECCENTRICITY":0.00015347,"INCLINATION":43.0039,"RA_OF_ASC_NODE":62.9388,"ARG_OF_PERICENTER":263.5028,"MEAN_ANOMALY":96.5649,"EPHEMERIS_TYPE":0,"CLASSIFICATION_TYPE":"U","NORAD_CAT_ID":63846,"ELEMENT_SET_NO":999,"REV_AT_EPOCH":4815,"BSTAR":0.0013228789,"MEAN_MOTION_DOT":0.00036342,"MEAN_MOTION_DDOT":0},{"OBJECT_NAME":"STARLINK-34037","OBJECT_ID":"2025-093M","EPOCH":"2026-03-11T23:30:19.338336","MEAN_MOTION":15.27595041,"ECCENTRICITY":7.012e-5,"INCLINATION":42.9977,"RA_OF_ASC_NODE":64.8568,"ARG_OF_PERICENTER":172.2039,"MEAN_ANOMALY":187.8824,"EPHEMERIS_TYPE":0,"CLASSIFICATION_TYPE":"U","NORAD_CAT_ID":63847,"ELEMENT_SET_NO":999,"REV_AT_EPOCH":4832,"BSTAR":0.0010818141,"MEAN_MOTION_DOT":0.0002964,"MEAN_MOTION_DDOT":0},{"OBJECT_NAME":"STARLINK-34010","OBJECT_ID":"2025-093N","EPOCH":"2026-03-11T07:58:00.353856","MEAN_MOTION":15.27612687,"ECCENTRICITY":0.00019108,"INCLINATION":43.0034,"RA_OF_ASC_NODE":68.5953,"ARG_OF_PERICENTER":260.0522,"MEAN_ANOMALY":100.0114,"EPHEMERIS_TYPE":0,"CLASSIFICATION_TYPE":"U","NORAD_CAT_ID":63848,"ELEMENT_SET_NO":999,"REV_AT_EPOCH":4800,"BSTAR":0.0011791334,"MEAN_MOTION_DOT":0.0003236,"MEAN_MOTION_DDOT":0}]
