STARLINK-33984          
1 63830U 25092AC  26071.29199536  .00014446  00000+0  53350-3 0  9995
2 63830  42.9980 157.7551 0000881 264.8151  95.2600 15.27575663 49012
STARLINK-33940          
1 63831U 25092AD  26071.30227452  .00026643  00000+0  97331-3 0  9996
2 63831  42.9990 157.8370 0001464 228.1315 131.9412 15.27609945 49062
STARLINK-33978          
1 63832U 25092AE  26071.28685878  .00026611  00000+0  97246-3 0  9994
2 63832  43.0058 157.7356 0001727 273.9483  86.1172 15.27600339 49061
STARLINK-34018          
1 63836U 25093A   26071.25892810  .00023330  00000+0  85410-3 0  9997
2 63836  42.9978  63.5183 0000129 139.8994 220.1868 15.27599537 48369
STARLINK-34053          
1 63837U 25093B   26071.25635800  .00024333  00000+0  89042-3 0  9991
2 63837  42.9966  63.4989 0000380 262.9855  97.0953 15.27595199 48303
STARLINK-34042          
1 63838U 25093C   26071.28624529  .00031199  00000+0  11381-2 0  9999
2 63838  43.0011  59.4009 0001727 258.7137 101.3520 15.27590989 48410
STARLINK-34040          
1 63839U 25093D   26070.98196136  .00021070  00000+0  77276-3 0  9997
2 63839  43.0000  64.8757 0001311 236.5101 123.5625 15.27590381 48321
STARLINK-33990          
1 63840U 25093E   26070.26527715  .00027149  00000+0  99188-3 0  9990
2 63840  43.0039  68.9462 0002598 275.0384  85.0171 15.27598700 47995
STARLINK-34056          
1 63841U 25093F   26071.00380626  .00002892  00000+0  11452-3 0  9998
2 63841  42.9977  65.0493 0000483 302.8057  57.2748 15.27588180 48100
STARLINK-34026          
1 63842U 25093G   26070.67815714  .00027119  00000+0  99119-3 0  9997
2 63842  43.0023  66.9049 0000751 288.0380  72.0390 15.27586861 48050
STARLINK-33777          
1 63843U 25093H   26070.37933581  .00017543  00000+0  64515-3 0  9990
2 63843  43.0035  68.0930 0003841 238.8425 121.2050 15.27594357 48231
STARLINK-34041          
1 63844U 25093J   26071.27177596  .00029321  00000+0  10705-2 0  9995
2 63844  43.0020  63.6176 0001056 262.3152  97.7579 15.27589063 48369
STARLINK-34011          
1 63845U 25093K   26071.27948517  .00028379  00000+0  10360-2 0  9994
2 63845  42.9930  63.6730 0001023 130.0426 230.0516 15.27605329 48146
STARLINK-34044          
1 63846U 25093L   26071.29604202  .00036342  00000+0  13229-2 0  9993
2 63846  43.0039  62.9388 0001534 263.5028  96.5649 15.27599371 48159
STARLINK-34037          
1 63847U 25093M   26070.97939049  .00029640  00000+0  10818-2 0  9992
2 63847  42.9977  64.8568 0000701 172.2039 187.8824 15.27595041 48321
STARLINK-34010          
1 63848U 25093N   26070.33194854  .00032360  00000+0  11791-2 0  9994
2 63848  43.0034  68.5953 0001910 260.0522 100.0114 15.27612687 48003
